{
    "links": {
        "self": "http://www.neowsapp.com/rest/v1/neo/3752772?api_key=iIulBulltgU6a56xZRHN4H3l9WmuAYTsLGpBGhQ2"
    },
    "id": "3752772",
    "neo_reference_id": "3752772",
    "name": "(2016 JO5)",
    "designation": "2016 JO5",
    "nasa_jpl_url": "http://ssd.jpl.nasa.gov/sbdb.cgi?sstr=3752772",
    "absolute_magnitude_h": 23.4,
    "estimated_diameter": {
        "kilometers": {
            "estimated_diameter_min": 0.0555334912,
            "estimated_diameter_max": 0.1241766613
        },
        "meters": {
            "estimated_diameter_min": 55.5334911581,
            "estimated_diameter_max": 124.1766612574
        },
        "miles": {
            "estimated_diameter_min": 0.0345069009,
            "estimated_diameter_max": 0.0771597762
        },
        "feet": {
            "estimated_diameter_min": 182.1964991311,
            "estimated_diameter_max": 407.4037573197
        }
    },
    "is_potentially_hazardous_asteroid": false,
    "close_approach_data": [
        {
            "close_approach_date": "1935-05-20",
            "close_approach_date_full": "1935-May-20 10:23",
            "epoch_date_close_approach": -1092490620000,
            "relative_velocity": {
                "kilometers_per_second": "22.925078049",
                "kilometers_per_hour": "82530.2809763345",
                "miles_per_hour": "51281.1070877674"
            },
            "miss_distance": {
                "astronomical": "0.4381979585",
                "lunar": "170.4590058565",
                "kilometers": "65553481.229948395",
                "miles": "40733044.419922051"
            },
            "orbiting_body": "Earth"
        },
        {
            "close_approach_date": "2016-04-06",
            "close_approach_date_full": "2016-Apr-06 22:56",
            "epoch_date_close_approach": 1459983360000,
            "relative_velocity": {
                "kilometers_per_second": "9.5314414302",
                "kilometers_per_hour": "34313.1891486917",
                "miles_per_hour": "21320.8813351968"
            },
            "miss_distance": {
                "astronomical": "0.0405434413",
                "lunar": "15.7713986657",
                "kilometers": "6065212.460950031",
                "miles": "3768748.2640551878"
            },
            "orbiting_body": "Earth"
        },
        {
            "close_approach_date": "2018-12-29",
            "close_approach_date_full": "2018-Dec-29 01:47",
            "epoch_date_close_approach": 1546048020000,
            "relative_velocity": {
                "kilometers_per_second": "24.8239438232",
                "kilometers_per_hour": "89366.1977635211",
                "miles_per_hour": "55528.6799381168"
            },
            "miss_distance": {
                "astronomical": "0.4941512343",
                "lunar": "192.2248301427",
                "kilometers": "73923972.109150941",
                "miles": "45934226.2702513458"
            },
            "orbiting_body": "Earth"
        }
    ],
    "orbital_data": {
        "orbit_id": "7",
        "orbit_determination_date": "2017-04-06 08:26:11",
        "first_observation_date": "2016-05-02",
        "last_observation_date": "2016-05-27",
        "data_arc_in_days": 25,
        "observations_used": 27,
        "orbit_uncertainty": "7",
        "minimum_orbit_intersection": ".028264",
        "jupiter_tisserand_invariant": "3.613",
        "epoch_osculation": "2459000.5",
        "eccentricity": ".5443092718878645",
        "semi_major_axis": "2.024105636956725",
        "inclination": "5.383274889737971",
        "ascending_node_longitude": "189.1322467515917",
        "orbital_period": "1051.836381590475",
        "perihelion_distance": ".9223661714806878",
        "perihelion_argument": "339.2451948763423",
        "aphelion_distance": "3.125845102432761",
        "perihelion_time": "2458515.363831983727",
        "mean_anomaly": "166.0420038160048",
        "mean_motion": ".3422585549433518",
        "equinox": "J2000",
        "orbit_class": {
            "orbit_class_type": "APO",
            "orbit_class_description": "Near-Earth asteroid orbits which cross the Earth’s orbit similar to that of 1862 Apollo",
            "orbit_class_range": "a (semi-major axis) > 1.0 AU; q (perihelion) < 1.017 AU"
        }
    },
    "is_sentry_object": false
}